     2              NAVIGATION DATA                         RINEX VERSION / TYPE
CCRINEXN V1.6.0 UX  CDDIS               06-AUG-23 03:18     PGM / RUN BY / DATE 
IGS BROADCAST EPHEMERIS FILE                                COMMENT             
    0.1490D-07  0.2235D-07 -0.1192D-06 -0.1192D-06          ION ALPHA           
    0.1167D+06  0.1475D+06 -0.6554D+05 -0.3277D+06          ION BETA            
   -0.372529029846D-08-0.177635683940D-14   233472     2274 DELTA-UTC: A0,A1,T,W
    18                                                      LEAP SECONDS        
                                                            END OF HEADER       
 6 23  8  6  1 59 44.0 0.569981522858D-03-0.466116034659D-11 0.000000000000D+00
    0.310000000000D+02 0.240625000000D+02 0.351050336941D-08 0.254067504166D+01
    0.132806599140D-05 0.268754502758D-02 0.110697001219D-04 0.515371811676D+04
    0.718400000000D+04-0.633299350738D-07 0.101065795131D+01-0.316649675369D-07
    0.989328204874D+00 0.182500000000D+03-0.772731746145D+00-0.752567061725D-08
    0.109647424398D-09 0.100000000000D+01 0.227400000000D+04 0.000000000000D+00
    0.200000000000D+01 0.000000000000D+00 0.372529029846D-08 0.310000000000D+02
    0.480600000000D+04 0.400000000000D+01 0.000000000000D+00 0.000000000000D+00
20 23  8  6  1 59 44.0 0.418763607740D-03-0.204636307899D-11 0.000000000000D+00
    0.320000000000D+02 0.445000000000D+02 0.485091634585D-08-0.308653717704D+01
    0.241026282310D-05 0.404274917673D-02 0.546686351299D-05 0.515359285545D+04
    0.718400000000D+04 0.260770320892D-07 0.187810450277D+01-0.372529029846D-07
    0.949341975355D+00 0.267625000000D+03-0.287412660092D+01-0.840499295884D-08
    0.517521556850D-09 0.100000000000D+01 0.227400000000D+04 0.000000000000D+00
    0.200000000000D+01 0.000000000000D+00-0.838190317154D-08 0.320000000000D+02
    0.570600000000D+04 0.400000000000D+01 0.000000000000D+00 0.000000000000D+00
21 23  8  6  1 59 44.0 0.151176936924D-03-0.568434188608D-12 0.000000000000D+00
    0.600000000000D+01 0.210625000000D+02 0.404838291711D-08-0.178098870071D+01
    0.116042792797D-05 0.247104207519D-01 0.113025307655D-04 0.515359884453D+04
    0.718400000000D+04-0.543892383575D-06 0.913399516196D+00 0.109896063805D-06
    0.961843050681D+00 0.169875000000D+03-0.725258446725D+00-0.800783355841D-08
    0.191079387795D-09 0.100000000000D+01 0.227400000000D+04 0.000000000000D+00
    0.200000000000D+01 0.000000000000D+00-0.102445483208D-07 0.600000000000D+01
    0.180000000000D+02 0.400000000000D+01 0.000000000000D+00 0.000000000000D+00
24 23  8  6  1 59 44.0-0.280931591988D-03-0.117097442853D-10 0.000000000000D+00
    0.100000000000D+02 0.101562500000D+02 0.497592155282D-08 0.265862601413D+01
    0.411644577980D-06 0.141690355958D-01 0.131558626890D-04 0.515364916611D+04
    0.718400000000D+04 0.186264514923D-08-0.223090294151D+01-0.223517417908D-06
    0.933917777584D+00 0.108187500000D+03 0.907201454136D+00-0.794318800852D-08
    0.700029159024D-10 0.100000000000D+01 0.227400000000D+04 0.000000000000D+00
    0.200000000000D+01 0.000000000000D+00 0.279396772385D-08 0.100000000000D+02
    0.180000000000D+02 0.400000000000D+01 0.000000000000D+00 0.000000000000D+00
31 23  8  6  1 59 44.0-0.221350695938D-03-0.682121026330D-12 0.000000000000D+00
    0.520000000000D+02 0.197187500000D+02 0.475305512668D-08 0.798550731735D+00
    0.132061541081D-05 0.103566542966D-01 0.115297734737D-04 0.515360635948D+04
    0.718400000000D+04-0.353902578354D-07-0.211869958693D+01 0.113621354103D-06
    0.954292106851D+00 0.154343750000D+03 0.561810302134D+00-0.817676916668D-08
    0.000000000000D+00 0.100000000000D+01 0.227400000000D+04 0.000000000000D+00
    0.200000000000D+01 0.000000000000D+00-0.135041773319D-07 0.520000000000D+02
    0.582600000000D+04 0.400000000000D+01 0.000000000000D+00 0.000000000000D+00
 1 23  8  6  2  0  0.0 0.169724691659D-03-0.159161572810D-11 0.000000000000D+00
    0.410000000000D+02 0.182812500000D+02 0.342157109360D-08 0.233564338044D+01
    0.802800059319D-06 0.129092960851D-01 0.105034559965D-04 0.515364500618D+04
    0.720000000000D+04 0.428408384323D-07 0.101899110281D+01-0.234693288803D-06
    0.990136512463D+00 0.191375000000D+03 0.990592657635D+00-0.749495505210D-08
    0.177150236161D-09 0.100000000000D+01 0.227400000000D+04 0.000000000000D+00
    0.200000000000D+01 0.630000000000D+02 0.465661287308D-08 0.410000000000D+02
    0.180000000000D+02 0.400000000000D+01 0.000000000000D+00 0.000000000000D+00
 2 23  8  6  2  0  0.0-0.568551011383D-03 0.409272615798D-11 0.000000000000D+00
    0.560000000000D+02 0.205000000000D+02 0.400802409315D-08-0.126528279874D+01
    0.124052166939D-05 0.159434366506D-01 0.107772648335D-04 0.515355195046D+04
    0.720000000000D+04-0.238418579102D-06 0.918836783320D+00 0.257045030594D-06
    0.967545717477D+00 0.181406250000D+03-0.135992783749D+01-0.806105006081D-08
    0.143577409147D-09 0.100000000000D+01 0.227400000000D+04 0.000000000000D+00
    0.200000000000D+01 0.000000000000D+00-0.176951289177D-07 0.560000000000D+02
    0.180000000000D+02 0.400000000000D+01 0.000000000000D+00 0.000000000000D+00
 3 23  8  6  2  0  0.0-0.200512818992D-03 0.176214598468D-10 0.000000000000D+00
    0.141000000000D+03 0.211250000000D+02 0.427589239380D-08 0.114631322713D+01
    0.979751348495D-06 0.509100919589D-02 0.518746674061D-05 0.515362115860D+04
    0.720000000000D+04-0.931322574615D-07 0.204932783167D+01 0.484287738800D-07
    0.979871503033D+00 0.287156250000D+03 0.108321599188D+01-0.822855703814D-08
    0.335013954676D-09 0.100000000000D+01 0.227400000000D+04 0.000000000000D+00
    0.200000000000D+01 0.000000000000D+00 0.186264514923D-08 0.141000000000D+03
    0.180000000000D+02 0.400000000000D+01 0.000000000000D+00 0.000000000000D+00
 4 23  8  6  2  0  0.0 0.117064919323D-03 0.112549969344D-10 0.000000000000D+00
    0.970000000000D+02-0.738437500000D+02 0.465840832712D-08-0.216150272519D+01
   -0.400841236115D-05 0.248036975972D-02 0.807829201221D-05 0.515363926697D+04
    0.720000000000D+04-0.558793544769D-08 0.312984926596D+01-0.931322574615D-07
    0.963575148613D+00 0.229781250000D+03-0.301508260094D+01-0.816319717279D-08
   -0.172507185617D-09 0.100000000000D+01 0.227400000000D+04 0.000000000000D+00
    0.200000000000D+01 0.000000000000D+00-0.465661287308D-08 0.865000000000D+03
    0.180000000000D+02 0.400000000000D+01 0.000000000000D+00 0.000000000000D+00
 5 23  8  6  2  0  0.0-0.137699302286D-03-0.147792889038D-11 0.000000000000D+00
    0.620000000000D+02 0.314687500000D+02 0.458447667614D-08-0.139396111541D+01
    0.193342566490D-05 0.607974734157D-02 0.481493771076D-05 0.515370538330D+04
    0.720000000000D+04 0.111758708954D-06 0.200182177312D+01 0.875443220139D-07
    0.966871531680D+00 0.285250000000D+03 0.119975143165D+01-0.833499004293D-08
    0.463590738986D-09 0.100000000000D+01 0.227400000000D+04 0.000000000000D+00
    0.200000000000D+01 0.000000000000D+00-0.111758708954D-07 0.620000000000D+02
    0.514800000000D+04 0.400000000000D+01 0.000000000000D+00 0.000000000000D+00
 7 23  8  6  2  0  0.0 0.104006379843D-03-0.109139364213D-10 0.000000000000D+00
    0.590000000000D+02 0.165000000000D+02 0.478877090010D-08 0.166537463454D+01
    0.827014446259D-06 0.175200978992D-01 0.118613243103D-04 0.515373938561D+04
    0.720000000000D+04-0.447034835815D-06-0.213899296416D+01-0.156462192535D-06
    0.950238619790D+00 0.151937500000D+03-0.217833972878D+01-0.816819738106D-08
    0.138934358602D-09 0.100000000000D+01 0.227400000000D+04 0.000000000000D+00
    0.200000000000D+01 0.000000000000D+00-0.111758708954D-07 0.590000000000D+02
    0.352800000000D+04 0.400000000000D+01 0.000000000000D+00 0.000000000000D+00
 8 23  8  6  2  0  0.0-0.135782174766D-03-0.181898940355D-11 0.000000000000D+00
    0.740000000000D+02-0.451562500000D+02 0.460447750926D-08-0.177059176972D+01
   -0.229291617870D-05 0.852358574048D-02 0.650994479656D-05 0.515373212051D+04
    0.720000000000D+04-0.186264514923D-08-0.746794956150D-01-0.122934579849D-06
    0.957900217280D+00 0.253406250000D+03 0.271156133324D+00-0.819891294621D-08
   -0.364658046614D-09 0.100000000000D+01 0.227400000000D+04 0.000000000000D+00
    0.200000000000D+01 0.000000000000D+00 0.512227416039D-08 0.740000000000D+02
    0.535200000000D+04 0.400000000000D+01 0.000000000000D+00 0.000000000000D+00
 9 23  8  6  2  0  0.0-0.939527526498D-04 0.966338120634D-11 0.000000000000D+00
    0.380000000000D+02-0.716875000000D+02 0.487234580990D-08-0.125563035407D+01
   -0.368990004063D-05 0.257761776447D-02 0.753253698349D-05 0.515356782341D+04
    0.720000000000D+04-0.614672899246D-07 0.307262712581D+01-0.502914190292D-07
    0.956914944880D+00 0.238343750000D+03 0.193951543528D+01-0.830677458193D-08
   -0.170007081477D-09 0.100000000000D+01 0.227400000000D+04 0.000000000000D+00
    0.200000000000D+01 0.000000000000D+00 0.931322574616D-09 0.380000000000D+02
    0.355800000000D+04 0.400000000000D+01 0.000000000000D+00 0.000000000000D+00
10 23  8  6  2  0  0.0-0.481107272208D-04-0.159161572810D-11 0.000000000000D+00
    0.760000000000D+02 0.194062500000D+02 0.435053836024D-08 0.252080503731D+00
    0.105798244476D-05 0.864455674309D-02 0.545941293240D-05 0.515368382263D+04
    0.720000000000D+04-0.167638063431D-07 0.204669999924D+01 0.147148966789D-06
    0.979590970936D+00 0.286187500000D+03-0.244189130818D+01-0.824712924032D-08
    0.395373611755D-09 0.100000000000D+01 0.227400000000D+04 0.000000000000D+00
    0.200000000000D+01 0.000000000000D+00 0.232830643654D-08 0.760000000000D+02
    0.180000000000D+02 0.400000000000D+01 0.000000000000D+00 0.000000000000D+00
